IXPE                    
1 49954U 21121A   24209.25001157  .00009371  00000+0  68967-3 0  9994
2 49954   0.2308  95.5223 0009276 158.5527 231.6707 14.98739735143920
